[{"name":"ASTROCAST-0402","l1":"1 55109U 23001DE  26186.76357610  .00011845  00000+0  42445-3 0  9994","l2":"2 55109  97.5577 280.2436 0005772 160.4747 199.6714 15.28881802147379","cat":"other"},{"name":"ASTROCAST-0401","l1":"1 55110U 23001DF  26186.77605382  .00016064  00000+0  58314-3 0  9999","l2":"2 55110  97.5558 280.0712 0009350 135.9920 224.2065 15.28357089194046","cat":"other"},{"name":"ASTROCAST-0403","l1":"1 55111U 23001DG  26186.81583352  .00018528  00000+0  60018-3 0  9998","l2":"2 55111  97.5619 281.3700 0004040 249.9337 110.1469 15.32064122147413","cat":"other"}]