{"fetched_at":"2026-07-06T18:35:23.453Z","source":"https://celestrak.org/NORAD/elements/gp.php?NAME=ASTROCAST&FORMAT=JSON","constellation":"astrocast","records":[{"OBJECT_NAME":"ASTROCAST-0402","OBJECT_ID":"2023-001DE","EPOCH":"2026-07-05T18:19:32.975904","CLASSIFICATION_TYPE":"U","MEAN_MOTION":15.28881802,"ECCENTRICITY":0.00057723,"INCLINATION":97.5577,"RA_OF_ASC_NODE":280.2436,"ARG_OF_PERICENTER":160.4747,"MEAN_ANOMALY":199.6714,"EPHEMERIS_TYPE":0,"NORAD_CAT_ID":55109,"ELEMENT_SET_NO":999,"REV_AT_EPOCH":14737,"BSTAR":0.00042444872,"MEAN_MOTION_DOT":0.00011845,"MEAN_MOTION_DDOT":0},{"OBJECT_NAME":"ASTROCAST-0401","OBJECT_ID":"2023-001DF","EPOCH":"2026-07-05T18:37:31.050912","CLASSIFICATION_TYPE":"U","MEAN_MOTION":15.28357089,"ECCENTRICITY":0.00093498,"INCLINATION":97.5558,"RA_OF_ASC_NODE":280.0712,"ARG_OF_PERICENTER":135.992,"MEAN_ANOMALY":224.2065,"EPHEMERIS_TYPE":0,"NORAD_CAT_ID":55110,"ELEMENT_SET_NO":999,"REV_AT_EPOCH":19404,"BSTAR":0.00058314272,"MEAN_MOTION_DOT":0.00016064,"MEAN_MOTION_DDOT":0},{"OBJECT_NAME":"ASTROCAST-0403","OBJECT_ID":"2023-001DG","EPOCH":"2026-07-05T19:34:48.016128","CLASSIFICATION_TYPE":"U","MEAN_MOTION":15.32064122,"ECCENTRICITY":0.00040395,"INCLINATION":97.5619,"RA_OF_ASC_NODE":281.37,"ARG_OF_PERICENTER":249.9337,"MEAN_ANOMALY":110.1469,"EPHEMERIS_TYPE":0,"NORAD_CAT_ID":55111,"ELEMENT_SET_NO":999,"REV_AT_EPOCH":14741,"BSTAR":0.00060017707,"MEAN_MOTION_DOT":0.00018528,"MEAN_MOTION_DDOT":0}]}
